SPACEBEE-139            
1 52177U 22033W   22344.78948633  .00022592  00000+0  82043-3 0  9994
2 52177  97.3712  63.6276 0010293 111.9919 248.2415 15.28259066 38550
SPACEBEE-129            
1 52179U 22033Y   22344.73554020  .00021268  00000+0  77690-3 0  9995
2 52179  97.3696  63.5020 0009154 114.5125 245.7070 15.28087915 38541
SPACEBEE-134            
1 52180U 22033Z   22344.77213649  .00021517  00000+0  79686-3 0  9994
2 52180  97.3687  63.4427 0009332 114.4624 245.7590 15.27632080 38549
SPACEBEE-131            
1 52181U 22033AA  22344.71932249  .00021216  00000+0  77309-3 0  9999
2 52181  97.3698  63.5320 0009202 115.7413 244.4778 15.28170035 38543
SPACEBEE-128            
1 52182U 22033AB  22344.73004108  .00020426  00000+0  74638-3 0  9990
2 52182  97.3721  63.5683 0009348 114.3671 245.8545 15.28085198 38547
SPACEBEE-133            
1 52183U 22033AC  22345.17398714  .00022799  00000+0  82884-3 0  9996
2 52183  97.3700  63.9944 0009271 113.4524 246.7691 15.28231750 38595
SPACEBEE-132            
1 52185U 22033AE  22344.74207268  .00022197  00000+0  79552-3 0  9993
2 52185  97.3707  63.6747 0008861 125.7218 234.4847 15.28708951 38557
SPACEBEE-137            
1 52186U 22033AF  22344.79551948  .00021999  00000+0  80376-3 0  9991
2 52186  97.3700  63.5950 0009598 114.3128 245.9114 15.28071526 38553
SPACEBEE-135            
1 52187U 22033AG  22345.46114660  .00022445  00000+0  80375-3 0  9999
2 52187  97.3709  64.4090 0008763 108.9542 251.2649 15.28734955 38645
SPACEBEE-143            
1 52394U 22047A   22345.18241418  .00013507  00000+0  68992-3 0  9995
2 52394  97.4405  66.3867 0006949 284.5649  75.4814 15.16790971 35100
SPACEBEENZ-15           
1 52395U 22047B   22344.22060110  .00016479  00000+0  80616-3 0  9996
2 52395  97.4407  65.6773 0006753 284.6271  75.4214 15.18259093 34971
SPACEBEENZ-16           
1 52396U 22047C   22345.47369244  .00018171  00000+0  88801-3 0  9990
2 52396  97.4400  66.9074 0006752 279.6125  80.4346 15.18273509 35166
SPACEBEENZ-17           
1 52397U 22047D   22344.75292792  .00016904  00000+0  82840-3 0  9993
2 52397  97.4406  66.1897 0006777 282.7794  77.2683 15.18192697 35056
SPACEBEENZ-18           
1 52398U 22047E   22344.75404938  .00016794  00000+0  82338-3 0  9990
2 52398  97.4403  66.1883 0006661 282.2281  77.8207 15.18178761 35051
SPACEBEE-140            
1 52399U 22047F   22345.19485980  .00014259  00000+0  71398-3 0  9994
2 52399  97.4405  66.5219 0006939 281.3107  78.7347 15.17475694 35134
SPACEBEE-141            
1 52400U 22047G   22345.23136389  .00012865  00000+0  65478-3 0  9991
2 52400  97.4405  66.4747 0006914 281.6949  78.3508 15.16926545 35121
SPACEBEE-142            
1 52401U 22047H   22345.18221461  .00013082  00000+0  66938-3 0  9996
2 52401  97.4398  66.3813 0006832 282.5714  77.4755 15.16736936 35100
SPACEBEENZ-20           
1 52402U 22047J   22344.76416733  .00017101  00000+0  83975-3 0  9994
2 52402  97.4397  66.1554 0007549 286.5470  73.4935 15.18114977 35056
SPACEBEENZ-22           
1 52403U 22047K   22344.77664261  .00016840  00000+0  83220-3 0  9999
2 52403  97.4398  66.1400 0007647 286.3348  73.7044 15.17895342 35054
SPACEBEENZ-19           
1 52404U 22047L   22345.22189883  .00016596  00000+0  81373-3 0  9998
2 52404  97.4397  66.6157 0007508 284.6416  75.3986 15.18173479 35123
SPACEBEENZ-21           
1 52405U 22047M   22345.22859170  .00016631  00000+0  81786-3 0  9990
2 52405  97.4398  66.6066 0007475 284.7023  75.3382 15.18070519 35123
SPACEBEE-148            
1 52406U 22047N   22345.47080243  .00015356  00000+0  77037-3 0  9992
2 52406  97.4396  66.7456 0007547 283.7577  76.2817 15.17390274 35157
SPACEBEE-149            
1 52407U 22047P   22345.18772903  .00014262  00000+0  72680-3 0  9996
2 52407  97.4396  66.3539 0007547 285.7054  74.3346 15.16855364 35104
SPACEBEE-153            
1 52408U 22047Q   22345.48314950  .00014002  00000+0  70788-3 0  9993
2 52408  97.4430  66.8135 0007682 297.4590  62.5861 15.17140142 35154
SPACEBEE-150            
1 52409U 22047R   22345.18344058  .00013791  00000+0  70444-3 0  9996
2 52409  97.4400  66.3665 0007572 286.5728  73.4674 15.16779464 35107
SPACEBEE-144            
1 52410U 22047S   22345.11574475  .00013640  00000+0  69696-3 0  9999
2 52410  97.4405  66.3240 0006957 286.0075  74.0392 15.16774529 35098
SPACEBEE-145            
1 52411U 22047T   22345.18906103  .00012922  00000+0  66134-3 0  9990
2 52411  97.4403  66.3753 0006817 285.4757  74.5723 15.16731319 35106
SPACEBEE-146            
1 52412U 22047U   22344.74706289  .00013564  00000+0  69626-3 0  9997
2 52412  97.4402  65.8859 0006687 289.0723  70.9786 15.16617506 35037
SPACEBEE-151            
1 52413U 22047V   22344.79594470  .00013139  00000+0  67312-3 0  9998
2 52413  97.4397  65.9650 0007594 289.2342  70.8069 15.16687194 35042
SPACEBEE-152            
1 52414U 22047W   22345.46922547  .00013123  00000+0  67409-3 0  9994
2 52414  97.4392  66.5879 0007469 286.5481  73.4931 15.16595686 35145
SPACEBEE-147            
1 52415U 22047X   22344.80381877  .00012235  00000+0  62854-3 0  9999
2 52415  97.4405  65.9766 0006817 289.6205  70.4292 15.16613543 35042
SPACEBEE-155            
1 52416U 22047Y   22344.84421225  .00012813  00000+0  66840-3 0  9997
2 52416  97.4386  65.8826 0008119 292.5917  67.4456 15.16053528 35046
SPACEBEE-154            
1 52417U 22047Z   22345.54267838  .00013073  00000+0  67285-3 0  9997
2 52417  97.4395  66.6478 0007332 288.2887  71.7548 15.16528053 35155
